INTELSAT 35E (IS-35E)   
1 42818U 17041A   26170.17324176  .00000000  00000+0  00000+0 0  9991
2 42818   0.0194  13.3558 0002038  75.0828 206.8380  1.00270762 32835
COSMOS 2520             
1 42907U 17046A   26169.47604609  .00000131  00000+0  00000+0 0  9993
2 42907   0.0475  93.6563 0001267   6.2150  23.1999  1.00271321 32412
TDRS 13                 
1 42915U 17047A   26170.39164924 -.00000107  00000+0  00000+0 0  9991
2 42915   3.4523   2.8094 0014583 106.3881 287.9749  1.00271772 32379
QZS-3 (MICHIBIKI-3)     
1 42917U 17048A   26170.60103922 -.00000354  00000+0  00000+0 0  9993
2 42917   0.0626 165.8124 0001965 277.9302 167.4533  1.00275041 32281
AMAZONAS 5              
1 42934U 17053A   26170.24338627 -.00000289  00000+0  00000+0 0  9997
2 42934   0.0317 326.5203 0002023  69.7821 257.7847  1.00272726 32064
ASIASAT 9               
1 42942U 17057A   26170.63198091  .00000000  00000+0  00000+0 0  9992
2 42942   0.0419  51.4620 0002592  23.9116 182.1544  1.00262325 31881
INTELSAT 37E (IS-37E)   
1 42950U 17059A   26170.39034922 -.00000147  00000+0  00000+0 0  9991
2 42950   0.0180  15.8663 0002559  97.1818 277.1016  1.00271073 32083
BSAT-4A                 
1 42951U 17059B   26170.53080868 -.00000356  00000+0  00000+0 0  9990
2 42951   0.0338 352.2017 0004036  78.2173 138.2535  1.00270469 31828
QZS-4 (MICHIBIKI-4)     
1 42965U 17062A   26169.35012919 -.00000360  00000+0  00000+0 0  9994
2 42965  40.1070 343.4662 0745019 271.8091 274.2172  1.00250086 31812
SES-11 (ECHOSTAR 105)   
1 42967U 17063A   26170.51574201 -.00000095  00000+0  00000+0 0  9999
2 42967   0.0150 359.1618 0002780  74.8067 274.4821  1.00270965 31741
KOREASAT 5A             
1 42984U 17067A   26170.55893464 -.00000364  00000+0  00000+0 0  9990
2 42984   0.0171 309.2900 0000687 129.3254 143.5213  1.00269884 31559
ALCOMSAT 1              
1 43039U 17078A   26169.96127719 -.00000193  00000+0  00000+0 0  9990
2 43039   0.0275 266.5703 0002319 169.3599 152.4971  1.00269156 31318
SBIRS GEO-3 (USA 282)   
1 43162U 18009A   26169.79190392  .00000121  00000+0  00000+0 0  9990
2 43162   2.1857  12.2091 0001910  65.3899 315.1084  1.00272038 30869
AL YAH 3                
1 43174U 18012A   26169.96223053 -.00000163  00000+0  00000+0 0  9994
2 43174   1.5575  83.0871 0003969   2.4989 147.8789  1.00269821 30860
SES-14                  
1 43175U 18012B   26169.52901991 -.00000285  00000+0  00000+0 0  9996
2 43175   0.0195  29.8723 0000856  72.0057 307.8305  1.00275741  7031
GOES 17                 
1 43226U 18022A   26170.51877536 -.00000188  00000+0  00000+0 0  9994
2 43226   0.9441  85.6659 0000544  28.2288 251.0785  1.00269516 30448
HISPASAT 30W-6          
1 43228U 18023A   26169.46122602 -.00000223  00000+0  00000+0 0  9996
2 43228   0.0456  42.9949 0005738  27.2662 332.4700  1.00269727 30412
SUPERBIRD-B3            
1 43271U 18033A   26170.14081397 -.00000098  00000+0  00000+0 0  9997
2 43271   0.0116  32.3287 0001006  50.9428  36.7971  1.00271787 30084
HYLAS 4                 
1 43272U 18033B   26170.03081774 -.00000239  00000+0  00000+0 0  9992
2 43272   0.0176  22.6602 0001584  46.0859 176.0933  1.00281832 30087
IRNSS-1I                
1 43286U 18035A   26166.83981681  .00000062  00000+0  00000+0 0  9991
2 43286  28.7520  74.2167 0017811 181.5598   5.5147  1.00272046 30064
USA 283                 
1 43339U 18036A   26166.49948147  .00000000  00000+0  00000+0 0  9995
2 43339   0.0182   1.8047 0000468 172.3670  43.5385  1.00267801 25278
COSMOS 2526             
1 43432U 18037A   26170.63302091 -.00000350  00000+0  00000+0 0  9992
2 43432   0.0243  44.0796 0000389 154.4729  65.2517  1.00273095 29980
APSTAR-6C               
1 43450U 18041A   26168.85207074 -.00000324  00000+0  00000+0 0  9994
2 43450   0.0269  17.8003 0000917 325.0673   3.9650  1.00268661 29810
BANGABANDHUSAT-1        
1 43463U 18044A   26170.18933795 -.00000369  00000+0  00000+0 0  9995
2 43463   0.0329  88.1320 0001718 357.3428   9.1823  1.00268866 29738
SES-12                  
1 43488U 18049A   26170.34141693 -.00000275  00000+0  00000+0 0  9999
2 43488   0.0139  12.5107 0000792 286.3428 186.6206  1.00270186 29442
FENGYUN 2H              
1 43491U 18050A   26170.62357421 -.00000136  00000+0  00000+0 0  9990
2 43491   3.0385  79.0443 0001937 138.1032 354.5707  1.00269375 29462
BEIDOU-2 IGSO-7         
1 43539U 18057A   26169.91623215 -.00000038  00000+0  00000+0 0  9998
2 43539  55.1945 163.0418 0105215 238.0859 305.6783  1.00250965 29143
TELSTAR 19V             
1 43562U 18059A   26169.45463932 -.00000286  00000+0  00000+0 0  9998
2 43562   0.0192 170.6171 0002571 297.8062 258.9345  1.00274890 29150
TELKOM 4 (MERAH PUTIH)  
1 43587U 18064A   26169.81415579  .00000000  00000+0  00000+0 0  9998
2 43587   0.0163   0.6116 0001485 120.7343 186.7929  1.00266997 28890
TELSTAR 18V             
1 43611U 18069A   26170.51887483 -.00000300  00000+0  00000+0 0  9991
2 43611   0.0151 301.0454 0001740 144.9911 146.4865  1.00269904 28669
AZERSPACE 2 (IS-38)     
1 43632U 18074A   26169.90383875  .00000130  00000+0  00000+0 0  9997
2 43632   0.0173  14.6973 0001499  84.9449 177.9809  1.00273868 28468
HORIZONS-3E             
1 43633U 18074B   26169.64319762 -.00000037  00000+0  00000+0 0  9990
2 43633   0.0047 132.2714 0000757 140.4157  34.7443  1.00271097 28353
